[{"OBJECT_NAME":"STARLINK-31415","OBJECT_ID":"2024-064X","EPOCH":"2026-03-09T09:06:37.998144","MEAN_MOTION":15.27551982,"ECCENTRICITY":0.00016163,"INCLINATION":43.0031,"RA_OF_ASC_NODE":58.3276,"ARG_OF_PERICENTER":276.0398,"MEAN_ANOMALY":84.0269,"EPHEMERIS_TYPE":0,"CLASSIFICATION_TYPE":"U","NORAD_CAT_ID":59419,"ELEMENT_SET_NO":999,"REV_AT_EPOCH":10917,"BSTAR":-0.00011879545,"MEAN_MOTION_DOT":-3.527e-5,"MEAN_MOTION_DDOT":0},{"OBJECT_NAME":"POEM","OBJECT_ID":"2022-072E","EPOCH":"2026-03-08T08:06:01.299456","MEAN_MOTION":15.22764653,"ECCENTRICITY":0.00236837,"INCLINATION":9.9515,"RA_OF_ASC_NODE":116.6548,"ARG_OF_PERICENTER":142.2805,"MEAN_ANOMALY":217.9074,"EPHEMERIS_TYPE":0,"CLASSIFICATION_TYPE":"U","NORAD_CAT_ID":52939,"ELEMENT_SET_NO":999,"REV_AT_EPOCH":20410,"BSTAR":0.00045784559,"MEAN_MOTION_DOT":0.00012084,"MEAN_MOTION_DDOT":0}]
